COSMOS 1933             
1 18958U 88020A   26053.10059645  .00002810  00000+0  13745-3 0  9998
2 18958  82.5102 266.3379 0002788 250.8455 109.2477 15.17831276 47867
SL-3 R/B                
1 19046U 88032B   26053.12845590  .00004852  00000+0  22885-3 0  9997
2 19046  97.5174  36.4401 0024223 290.0611  69.8016 15.19695840 49747
SL-16 R/B               
1 19120U 88039B   26053.12619838 -.00000139  00000+0 -42831-4 0  9991
2 19120  71.0135 101.4597 0021774 357.6261   2.4757 14.19613693956176
COSMOS 1953             
1 19210U 88050A   26052.78143071  .00007895  00000+0  28565-3 0  9997
2 19210  82.5105 174.2372 0011392 175.4374 184.6971 15.28196836 35350
SL-8 R/B                
1 19257U 88053B   26052.74640588  .00000213  00000+0  77709-4 0  9994
2 19257  74.0482 141.8524 0020963 323.6842 155.1773 14.38905299974306
COSMOS 1975             
1 19573U 88093A   26052.67968578  .00006942  00000+0  25428-3 0  9998
2 19573  82.5211 133.7506 0010813 220.9760 139.0667 15.27784028 16968
SL-14 R/B               
1 19574U 88093B   26053.10460846  .00000416  00000+0  44998-4 0  9997
2 19574  82.5281  56.6772 0022331  89.8013 335.5009 14.85635640998729
SL-16 R/B               
1 19650U 88102B   26053.08268449 -.00000171  00000+0 -62166-4 0  9992
2 19650  70.9997 184.3319 0013063  25.6855 334.4915 14.16151706924687
INTERCOSMOS 24          
1 20261U 89080A   26053.15519346  .00000547  00000+0  16068-3 0  9995
2 20261  82.6047 114.5183 1187232 328.9091  24.6651 12.59532336664840
SL-14 R/B               
1 20262U 89080C   26052.71197225  .00000514  00000+0  15359-3 0  9991
2 20262  82.5964 183.4410 1229896 221.2718 128.8814 12.50470852658150
DELTA 1 R/B             
1 20323U 89089B   26053.10111031  .00000242  00000+0  68536-4 0  9997
2 20323  97.0715 263.0179 0069320 170.7348 189.5148 14.50648579893475
ARIANE 40 R/B           
1 20443U 90005H   26053.10848065  .00000191  00000+0  74261-4 0  9999
2 20443  98.3120 114.2314 0009070 248.6406 111.3815 14.39858901890566
