CCSDS_OMM_VERS = 2.0
CREATION_DATE  = 
ORIGINATOR     = 

OBJECT_NAME    = COSMOS 1933
OBJECT_ID      = 1988-020A
CENTER_NAME    = EARTH
REF_FRAME      = TEME
TIME_SYSTEM    = UTC
MEAN_ELEMENT_THEORY = SGP/SGP4

EPOCH          = 2026-02-22T02:24:51.533280
MEAN_MOTION    = 15.17831276
ECCENTRICITY   = .0002788
INCLINATION    = 82.5102
RA_OF_ASC_NODE = 266.3379
ARG_OF_PERICENTER = 250.8455
MEAN_ANOMALY   = 109.2477

EPHEMERIS_TYPE = 0
CLASSIFICATION_TYPE = U
NORAD_CAT_ID   = 18958
ELEMENT_SET_NO = 999
REV_AT_EPOCH   = 4786
BSTAR          = .13745E-3
MEAN_MOTION_DOT = .281E-4
MEAN_MOTION_DDOT = 0

CCSDS_OMM_VERS = 2.0
CREATION_DATE  = 
ORIGINATOR     = 

OBJECT_NAME    = SL-3 R/B
OBJECT_ID      = 1988-032B
CENTER_NAME    = EARTH
REF_FRAME      = TEME
TIME_SYSTEM    = UTC
MEAN_ELEMENT_THEORY = SGP/SGP4

EPOCH          = 2026-02-22T03:04:58.589760
MEAN_MOTION    = 15.19695840
ECCENTRICITY   = .0024223
INCLINATION    = 97.5174
RA_OF_ASC_NODE = 36.4401
ARG_OF_PERICENTER = 290.0611
MEAN_ANOMALY   = 69.8016

EPHEMERIS_TYPE = 0
CLASSIFICATION_TYPE = U
NORAD_CAT_ID   = 19046
ELEMENT_SET_NO = 999
REV_AT_EPOCH   = 4974
BSTAR          = .22885E-3
MEAN_MOTION_DOT = .4852E-4
MEAN_MOTION_DDOT = 0

CCSDS_OMM_VERS = 2.0
CREATION_DATE  = 
ORIGINATOR     = 

OBJECT_NAME    = SL-16 R/B
OBJECT_ID      = 1988-039B
CENTER_NAME    = EARTH
REF_FRAME      = TEME
TIME_SYSTEM    = UTC
MEAN_ELEMENT_THEORY = SGP/SGP4

EPOCH          = 2026-02-22T03:01:43.540032
MEAN_MOTION    = 14.19613693
ECCENTRICITY   = .0021774
INCLINATION    = 71.0135
RA_OF_ASC_NODE = 101.4597
ARG_OF_PERICENTER = 357.6261
MEAN_ANOMALY   = 2.4757

EPHEMERIS_TYPE = 0
CLASSIFICATION_TYPE = U
NORAD_CAT_ID   = 19120
ELEMENT_SET_NO = 999
REV_AT_EPOCH   = 95617
BSTAR          = -.42831E-4
MEAN_MOTION_DOT = -.139E-5
MEAN_MOTION_DDOT = 0

CCSDS_OMM_VERS = 2.0
CREATION_DATE  = 
ORIGINATOR     = 

OBJECT_NAME    = COSMOS 1953
OBJECT_ID      = 1988-050A
CENTER_NAME    = EARTH
REF_FRAME      = TEME
TIME_SYSTEM    = UTC
MEAN_ELEMENT_THEORY = SGP/SGP4

EPOCH          = 2026-02-21T18:45:15.613344
MEAN_MOTION    = 15.28196836
ECCENTRICITY   = .0011392
INCLINATION    = 82.5105
RA_OF_ASC_NODE = 174.2372
ARG_OF_PERICENTER = 175.4374
MEAN_ANOMALY   = 184.6971

EPHEMERIS_TYPE = 0
CLASSIFICATION_TYPE = U
NORAD_CAT_ID   = 19210
ELEMENT_SET_NO = 999
REV_AT_EPOCH   = 3535
BSTAR          = .28565E-3
MEAN_MOTION_DOT = .7895E-4
MEAN_MOTION_DDOT = 0

CCSDS_OMM_VERS = 2.0
CREATION_DATE  = 
ORIGINATOR     = 

OBJECT_NAME    = SL-8 R/B
OBJECT_ID      = 1988-053B
CENTER_NAME    = EARTH
REF_FRAME      = TEME
TIME_SYSTEM    = UTC
MEAN_ELEMENT_THEORY = SGP/SGP4

EPOCH          = 2026-02-21T17:54:49.468032
MEAN_MOTION    = 14.38905299
ECCENTRICITY   = .00209636
INCLINATION    = 74.0482
RA_OF_ASC_NODE = 141.8524
ARG_OF_PERICENTER = 323.6842
MEAN_ANOMALY   = 155.1773

EPHEMERIS_TYPE = 0
CLASSIFICATION_TYPE = U
NORAD_CAT_ID   = 19257
ELEMENT_SET_NO = 999
REV_AT_EPOCH   = 97430
BSTAR          = .77709294E-4
MEAN_MOTION_DOT = .213E-5
MEAN_MOTION_DDOT = 0

CCSDS_OMM_VERS = 2.0
CREATION_DATE  = 
ORIGINATOR     = 

OBJECT_NAME    = COSMOS 1975
OBJECT_ID      = 1988-093A
CENTER_NAME    = EARTH
REF_FRAME      = TEME
TIME_SYSTEM    = UTC
MEAN_ELEMENT_THEORY = SGP/SGP4

EPOCH          = 2026-02-21T16:18:44.851392
MEAN_MOTION    = 15.27784028
ECCENTRICITY   = .00108134
INCLINATION    = 82.5211
RA_OF_ASC_NODE = 133.7506
ARG_OF_PERICENTER = 220.9760
MEAN_ANOMALY   = 139.0667

EPHEMERIS_TYPE = 0
CLASSIFICATION_TYPE = U
NORAD_CAT_ID   = 19573
ELEMENT_SET_NO = 999
REV_AT_EPOCH   = 1696
BSTAR          = .25427977E-3
MEAN_MOTION_DOT = .6942E-4
MEAN_MOTION_DDOT = 0

CCSDS_OMM_VERS = 2.0
CREATION_DATE  = 
ORIGINATOR     = 

OBJECT_NAME    = SL-14 R/B
OBJECT_ID      = 1988-093B
CENTER_NAME    = EARTH
REF_FRAME      = TEME
TIME_SYSTEM    = UTC
MEAN_ELEMENT_THEORY = SGP/SGP4

EPOCH          = 2026-02-22T02:30:38.170944
MEAN_MOTION    = 14.85635640
ECCENTRICITY   = .0022331
INCLINATION    = 82.5281
RA_OF_ASC_NODE = 56.6772
ARG_OF_PERICENTER = 89.8013
MEAN_ANOMALY   = 335.5009

EPHEMERIS_TYPE = 0
CLASSIFICATION_TYPE = U
NORAD_CAT_ID   = 19574
ELEMENT_SET_NO = 999
REV_AT_EPOCH   = 99872
BSTAR          = .44998E-4
MEAN_MOTION_DOT = .416E-5
MEAN_MOTION_DDOT = 0

CCSDS_OMM_VERS = 2.0
CREATION_DATE  = 
ORIGINATOR     = 

OBJECT_NAME    = SL-16 R/B
OBJECT_ID      = 1988-102B
CENTER_NAME    = EARTH
REF_FRAME      = TEME
TIME_SYSTEM    = UTC
MEAN_ELEMENT_THEORY = SGP/SGP4

EPOCH          = 2026-02-22T01:59:03.939936
MEAN_MOTION    = 14.16151706
ECCENTRICITY   = .0013063
INCLINATION    = 70.9997
RA_OF_ASC_NODE = 184.3319
ARG_OF_PERICENTER = 25.6855
MEAN_ANOMALY   = 334.4915

EPHEMERIS_TYPE = 0
CLASSIFICATION_TYPE = U
NORAD_CAT_ID   = 19650
ELEMENT_SET_NO = 999
REV_AT_EPOCH   = 92468
BSTAR          = -.62166E-4
MEAN_MOTION_DOT = -.171E-5
MEAN_MOTION_DDOT = 0

CCSDS_OMM_VERS = 2.0
CREATION_DATE  = 
ORIGINATOR     = 

OBJECT_NAME    = INTERCOSMOS 24
OBJECT_ID      = 1989-080A
CENTER_NAME    = EARTH
REF_FRAME      = TEME
TIME_SYSTEM    = UTC
MEAN_ELEMENT_THEORY = SGP/SGP4

EPOCH          = 2026-02-22T03:43:28.714944
MEAN_MOTION    = 12.59532336
ECCENTRICITY   = .1187232
INCLINATION    = 82.6047
RA_OF_ASC_NODE = 114.5183
ARG_OF_PERICENTER = 328.9091
MEAN_ANOMALY   = 24.6651

EPHEMERIS_TYPE = 0
CLASSIFICATION_TYPE = U
NORAD_CAT_ID   = 20261
ELEMENT_SET_NO = 999
REV_AT_EPOCH   = 66484
BSTAR          = .16068E-3
MEAN_MOTION_DOT = .547E-5
MEAN_MOTION_DDOT = 0

CCSDS_OMM_VERS = 2.0
CREATION_DATE  = 
ORIGINATOR     = 

OBJECT_NAME    = SL-14 R/B
OBJECT_ID      = 1989-080C
CENTER_NAME    = EARTH
REF_FRAME      = TEME
TIME_SYSTEM    = UTC
MEAN_ELEMENT_THEORY = SGP/SGP4

EPOCH          = 2026-02-21T17:05:14.402400
MEAN_MOTION    = 12.50470852
ECCENTRICITY   = .12298965
INCLINATION    = 82.5964
RA_OF_ASC_NODE = 183.4410
ARG_OF_PERICENTER = 221.2718
MEAN_ANOMALY   = 128.8814

EPHEMERIS_TYPE = 0
CLASSIFICATION_TYPE = U
NORAD_CAT_ID   = 20262
ELEMENT_SET_NO = 999
REV_AT_EPOCH   = 65815
BSTAR          = .15358914E-3
MEAN_MOTION_DOT = .514E-5
MEAN_MOTION_DDOT = 0

CCSDS_OMM_VERS = 2.0
CREATION_DATE  = 
ORIGINATOR     = 

OBJECT_NAME    = DELTA 1 R/B
OBJECT_ID      = 1989-089B
CENTER_NAME    = EARTH
REF_FRAME      = TEME
TIME_SYSTEM    = UTC
MEAN_ELEMENT_THEORY = SGP/SGP4

EPOCH          = 2026-02-22T02:25:35.930784
MEAN_MOTION    = 14.50648579
ECCENTRICITY   = .006932
INCLINATION    = 97.0715
RA_OF_ASC_NODE = 263.0179
ARG_OF_PERICENTER = 170.7348
MEAN_ANOMALY   = 189.5148

EPHEMERIS_TYPE = 0
CLASSIFICATION_TYPE = U
NORAD_CAT_ID   = 20323
ELEMENT_SET_NO = 999
REV_AT_EPOCH   = 89347
BSTAR          = .68536E-4
MEAN_MOTION_DOT = .242E-5
MEAN_MOTION_DDOT = 0

CCSDS_OMM_VERS = 2.0
CREATION_DATE  = 
ORIGINATOR     = 

OBJECT_NAME    = ARIANE 40 R/B
OBJECT_ID      = 1990-005H
CENTER_NAME    = EARTH
REF_FRAME      = TEME
TIME_SYSTEM    = UTC
MEAN_ELEMENT_THEORY = SGP/SGP4

EPOCH          = 2026-02-22T02:36:12.728160
MEAN_MOTION    = 14.39858901
ECCENTRICITY   = .000907
INCLINATION    = 98.3120
RA_OF_ASC_NODE = 114.2314
ARG_OF_PERICENTER = 248.6406
MEAN_ANOMALY   = 111.3815

EPHEMERIS_TYPE = 0
CLASSIFICATION_TYPE = U
NORAD_CAT_ID   = 20443
ELEMENT_SET_NO = 999
REV_AT_EPOCH   = 89056
BSTAR          = .74261E-4
MEAN_MOTION_DOT = .191E-5
MEAN_MOTION_DDOT = 0

